ORBCOMM FM20            
1 25416U 98046D   25303.58487557  .00001349  00000+0  49318-3 0  9991
2 25416  44.9943 259.9296 0002660 294.7540  65.3031 14.37522739423741
ORBCOMM FM16            
1 25417U 98046E   25303.83262141  .00002254  00000+0  76358-3 0  9990
2 25417  44.9926 248.4968 0005840 279.4885  80.5303 14.39345836423796
ORBCOMM FM15            
1 25418U 98046F   25303.84278085  .00001722  00000+0  59865-3 0  9999
2 25418  44.9970 254.0041 0005634 279.9330  80.0882 14.38973961423783
ORBCOMM FM14            
1 25419U 98046G   25303.82520237  .00001995  00000+0  68095-3 0  9994
2 25419  44.9950 251.9207 0004380 280.9685  79.0671 14.39374588423756
ORBCOMM FM13            
1 25420U 98046H   25303.92125977  .00001609  00000+0  57301-3 0  9999
2 25420  44.9975 260.7965 0006098 259.3741 100.6421 14.38039166422779
ORBCOMM FM21            
1 25475U 98053A   25302.84846213  .00001255  00000+0  46087-3 0  9996
2 25475  45.0096 351.6569 0003078 224.4376 135.6226 14.37654802416624
ORBCOMM FM22            
1 25476U 98053B   25303.47891904  .00001582  00000+0  55568-3 0  9991
2 25476  45.0086 342.3932 0004475 215.1936 144.8618 14.38795741416756
ORBCOMM FM23            
1 25477U 98053C   25303.52544735  .00001444  00000+0  52072-3 0  9999
2 25477  45.0096 350.3665 0003782 214.9493 145.1107 14.37878824416878
